#aV2015  6 21  0  0  0.00000000     288 DD+AD WGS84 FIT  NGA
## 1850      0.00000000   300.00000000 57194 0.0000000000000
+   31     1  2  3  4  5  6  7  9 10 11 12 13 14 15 16 17 18
+         19 20 21 22 23 24 25 26 27 28 29 30 31 32  0  0  0
+          0  0  0  0  0  0  0  0  0  0  0  0  0  0  0  0  0
+          0  0  0  0  0  0  0  0  0  0  0  0  0  0  0  0  0
+          0  0  0  0  0  0  0  0  0  0  0  0  0  0  0  0  0
++         2  2  2  2  2  2  2  2  2  2  2  2  2  2  2  2  2
++         2  2  2  2  2  2  2  2  2  2  2  2  2  2  0  0  0
++         0  0  0  0  0  0  0  0  0  0  0  0  0  0  0  0  0
++         0  0  0  0  0  0  0  0  0  0  0  0  0  0  0  0  0
++         0  0  0  0  0  0  0  0  0  0  0  0  0  0  0  0  0
%c cc cc ccc ccc cccc cccc cccc cccc ccccc ccccc ccccc ccccc
%c cc cc ccc ccc cccc cccc cccc cccc ccccc ccccc ccccc ccccc
%f  0.0000000  0.000000000  0.00000000000  0.000000000000000
%f  0.0000000  0.000000000  0.00000000000  0.000000000000000
%i    0    0    0    0      0      0      0      0         0
%i    0    0    0    0      0      0      0      0         0
/*      NGA, ST. LOUIS,MO.                                  
/*   EPHEMERIS COMPUTED FROM  1 DAYS OF DATA                
/*   EPOCHA SMOOTHER                                       
/* CCCCCCCCCCCCCCCCCCCCCCCCCCCCCCCCCCCCCCCCCCCCCCCCCCCCCCCCC
*  2015  6 21  3 10  0.00000000
P  1   8737.483997  13751.680418 -21065.834808     -3.992073                    
V  1 -26326.794380   3710.052436  -8328.162611      0.005271                    
P  2  14411.718175 -14704.566895  16901.779953    573.385356                    
V  2  21103.017542   -943.755371 -19685.358549      0.023725                    
P  3  13030.102335  22655.570191  -4612.994299    353.753020                    
V  3  -5819.096890  -2981.800384 -31009.911229      0.066304                    
P  4  -1682.977117  16023.530972 -21416.083236    -20.517700                    
V  4 -26370.517880   3079.391491   4711.920508     -0.021987                    
P  5   3884.322108 -17759.691323  19249.917224   -226.995201                    
V  5  16241.489612  18623.181026  14053.594705      0.044505                    
P  6  24986.887567  -7055.675842   5589.631803    189.249165                    
V  6   7374.779518   1782.013373 -30727.813232      0.086089                    
P  7  22004.953415   7126.478970  13496.063995    469.921219                    
V  7 -16551.032925   3333.442738  25053.118429      0.022993                    
P  9  11324.353368  11440.194716  21118.078707   -172.642228                    
V  9 -11010.352070  24491.106766  -7379.927911     -0.040120                    
P 10  17824.394564    253.560821  19424.171768   -179.649694                    
V 10  14148.995652  21203.322665 -12582.152981     -0.013082                    
P 11   3755.213761  16798.088000 -20751.858007   -586.368280                    
V 11 -23095.525249  10810.253317   4819.670802     -0.025074                    
P 12 -10157.482463 -23546.356519  -7445.854718    303.235830                    
V 12   6524.954223   6723.996503 -30378.167339      0.032456                    
P 13  12679.447990 -23409.871385   -619.360673   -125.233894                    
V 13   2296.483132    586.247289  31955.994548     -0.034042                    
P 14 -17778.917887   7305.139764 -18014.989486     54.542780                    
V 14   9316.177322 -21546.247637 -17844.359559     -0.027290                    
P 15   1651.040320 -24650.678504  -9400.417592   -256.128321                    
V 15   7456.613349 -10002.227078  28123.728713     -0.021228                    
P 16  -4742.138691  16639.493826  19952.609246   -116.763850                    
V 16 -14867.466236 -20813.474341  14126.701005      0.039545                    
P 17  17420.861421  -8095.223639 -17957.281153   -176.817082                    
V 17  -8691.918539  21831.033559 -18180.251282     -0.016475                    
P 18 -20501.433338 -12732.710317 -10907.765137    411.020736                    
V 18  -6428.207804 -13490.729676  26312.771985      0.030261                    
P 19  -6327.764418  24124.796136  -8613.458352   -513.900308                    
V 19  -7460.444972   8231.285687  29663.375720     -0.009993                    
P 20 -10278.764862 -22500.246288   9433.775726    331.551545                    
V 20  10811.600129   6875.583699  27757.917374      0.035593                    
P 21 -23425.604429  -5797.554966  12182.305117   -457.084860                    
V 21  13824.505806  -4555.411519  25579.686461     -0.032934                    
P 22 -18530.166619   -474.197540 -18844.143097    363.160288                    
V 22 -13766.907185 -20360.747119  13699.069704      0.039245                    
P 23   3887.672381  20544.641624  16267.362891   -116.144953                    
V 23 -10268.638003  17994.815415 -20904.222497     -0.023785                    
P 24  -5654.850245 -14616.307871 -21494.150616     -0.020982                    
V 24  26905.318372  -4112.605295  -4144.928829     -0.006013                    
P 25 -18075.062128 -19061.255607   4388.175704     -4.146590                    
V 25  -1732.767056  -5786.455145 -31382.928001     -0.042000                    
P 26 -12685.963069   8450.312045  21740.010569     -0.395379                    
V 26 -16624.836414 -22072.199768  -1116.662208     -0.027989                    
P 27 -12166.416532  23321.289617   3162.749558     -1.366620                    
V 27   -892.513816  -4771.211797  31652.951455      0.027561                    
P 28  18158.217257   6710.420777 -17606.824957    448.262762                    
V 28  11720.811178  20424.763996  19124.212040      0.025175                    
P 29  -9088.837302 -13712.216388  20883.116968    617.876180                    
V 29  12267.648911 -23410.433988  -9993.353107      0.022990                    
P 30  26398.167904    919.818577   3131.529713    -39.967349                    
V 30  -3837.591818   3076.560816  31267.976636      0.069420                    
P 31 -23878.954900   8209.746254   8892.311329    312.302016                    
V 31 -11120.260188   -880.709633 -29151.719015     -0.011888                    
P 32   1081.988919  22078.708060 -15129.143782   -120.118361                    
V 32 -11833.675148 -14987.933882 -22215.054471      0.097449                    
EOF
